NORAD_CAT_ID,OBJECT_NAME,OBJECT_TYPE,EPOCH,MEAN_MOTION,ECCENTRICITY,INCLINATION,RA_OF_ASC_NODE,ARG_OF_PERICENTER,MEAN_ANOMALY,BSTAR,MEAN_MOTION_DOT,MEAN_MOTION_DDOT,TLE_LINE0,TLE_LINE1,TLE_LINE2,SEMIMAJOR_AXIS,PERIOD,APOGEE,PERIGEE,DECAYED
53624.0,STARLINK-4596,PAYLOAD,2024-05-09 08:50:28,15.08844317,9.73e-05,53.2155,358.5793,106.3781,253.7318,0.00011226,1.5e-05,0.0,0 STARLINK-4596,1 53624U 22104AN  24130.36839086  .00001500  00000-0  11226-3 0  9993,2 53624  53.2155 358.5793 0000973 106.3781 253.7318 15.08844317 94023,6917.867,95.437,540.405,539.059,0.0
53624.0,STARLINK-4596,PAYLOAD,2024-05-09 19:58:11,15.0883397,9.71e-05,53.217,356.4972,101.3196,258.7905,0.0001629,2.305e-05,0.0,0 STARLINK-4596,1 53624U 22104AN  24130.83207740  .00002305  00000-0  16290-3 0  9991,2 53624  53.2170 356.4972 0000971 101.3196 258.7905 15.08833970 94096,6917.899,95.438,540.436,539.092,0.0
53624.0,STARLINK-4596,PAYLOAD,2024-05-09 21:33:34,15.08844689,0.0001178,53.2183,356.1993,119.5931,240.5178,6.9992e-05,8.26e-06,0.0,0 STARLINK-4596,1 53624U 22104AN  24130.89831291  .00000826  00000-0  69992-4 0  9995,2 53624  53.2183 356.1993 0001178 119.5931 240.5178 15.08844689 94784,6917.866,95.437,540.546,538.916,0.0
53624.0,STARLINK-4596,PAYLOAD,2024-05-10 19:48:58,15.08844216,0.000114,53.218,352.0373,96.8628,263.2494,5.8725e-05,6.47e-06,0.0,0 STARLINK-4596,1 53624U 22104AN  24131.82567574  .00000647  00000-0  58725-4 0  9992,2 53624  53.2180 352.0373 0001140  96.8628 263.2494 15.08844216 94922,6917.868,95.437,540.521,538.944,0.0
53624.0,STARLINK-4596,PAYLOAD,2024-05-11 00:35:07,15.0886192,0.0001299,53.2195,351.142,106.1009,254.0127,0.00018574,2.671e-05,0.0,0 STARLINK-4596,1 53624U 22104AN  24132.02438755  .00002671  00000-0  18574-3 0  9999,2 53624  53.2195 351.1420 0001299 106.1009 254.0127 15.08861920 94274,6917.813,95.436,540.577,538.78,0.0
53624.0,STARLINK-4596,PAYLOAD,2024-05-11 21:15:08,15.08820788,9.31e-05,53.2171,347.279,80.815,279.2948,-0.00037595,-6.263e-05,0.0,0 STARLINK-4596,1 53624U 22104AN  24132.88551765 -.00006263  00000-0 -37595-3 0  9997,2 53624  53.2171 347.2790 0000931  80.8150 279.2948 15.08820788 94403,6917.939,95.439,540.448,539.16,0.0
53624.0,STARLINK-4596,PAYLOAD,2024-05-12 06:47:30,15.0877335,0.0001432,53.2186,345.4926,82.3757,277.7397,-0.0010428,-0.00016815,0.0,0 STARLINK-4596,1 53624U 22104AN  24133.28299166 -.00016815  00000-0 -10428-2 0  9995,2 53624  53.2186 345.4926 0001432  82.3757 277.7397 15.08773350 94466,6918.084,95.442,540.94,538.958,0.0
53624.0,STARLINK-4596,PAYLOAD,2024-05-12 14:44:27,15.08762853,0.0001104,53.2175,344.0064,84.8907,275.2211,-0.001139,-0.00018331,0.0,0 STARLINK-4596,1 53624U 22104AN  24133.61420302 -.00018331  00000-0 -11390-2 0  9994,2 53624  53.2175 344.0064 0001104  84.8907 275.2211 15.08762853 95197,6918.116,95.442,540.745,539.217,0.0
53624.0,STARLINK-4596,PAYLOAD,2024-05-12 21:05:58,15.08816072,0.0001408,53.2177,342.819,105.6105,254.5043,4.9662e-05,5.02e-06,0.0,0 STARLINK-4596,1 53624U 22104AN  24133.87915202  .00000502  00000-0  49662-4 0  9994,2 53624  53.2177 342.8190 0001408 105.6105 254.5043 15.08816072 94559,6917.954,95.439,540.793,538.844,0.0
53624.0,STARLINK-4596,PAYLOAD,2024-05-12 22:41:21,15.08815543,0.0001425,53.2176,342.5219,107.0753,253.0396,7.0298e-05,8.3e-06,0.0,0 STARLINK-4596,1 53624U 22104AN  24133.94539328  .00000830  00000-0  70298-4 0  9996,2 53624  53.2176 342.5219 0001425 107.0753 253.0396 15.08815543 95245,6917.955,95.439,540.806,538.834,0.0
53624.0,STARLINK-4596,PAYLOAD,2024-05-13 12:59:50,15.08831913,0.0001258,53.2176,339.8455,102.2088,257.9045,0.00023626,3.473e-05,0.0,0 STARLINK-4596,1 53624U 22104AN  24134.54155384  .00003473  00000-0  23626-3 0  9997,2 53624  53.2176 339.8455 0001258 102.2088 257.9045 15.08831913 94655,6917.905,95.438,540.64,538.9,0.0
53624.0,STARLINK-4596,PAYLOAD,2024-05-13 22:32:09,15.08835859,0.0001263,53.2177,338.0631,93.7786,266.335,0.00067392,0.00010453,0.0,0 STARLINK-4596,1 53624U 22104AN  24134.93899506  .00010453  00000-0  67392-3 0  9995,2 53624  53.2177 338.0631 0001263  93.7786 266.3350 15.08835859 95396,6917.893,95.438,540.632,538.884,0.0
53624.0,STARLINK-4596,PAYLOAD,2024-05-14 12:50:39,15.08817404,0.0001613,53.2174,335.3861,100.6678,259.4496,0.0021211,0.0003361,0.0,0 STARLINK-4596,1 53624U 22104AN  24135.53517644  .00033610  00000-0  21211-2 0  9991,2 53624  53.2174 335.3861 0001613 100.6678 259.4496 15.08817404 95485,6917.949,95.439,540.93,538.699,0.0
53624.0,STARLINK-4596,PAYLOAD,2024-05-15 12:41:24,15.08836055,8.36e-05,53.2214,330.9256,104.0305,256.078,0.00058286,9e-05,0.0,0 STARLINK-4596,1 53624U 22104AN  24136.52875246  .00009000  00000-0  58286-3 0  9995,2 53624  53.2214 330.9256 0000836 104.0305 256.0780 15.08836055 95639,6917.892,95.438,540.336,539.179,0.0
53624.0,STARLINK-4596,PAYLOAD,2024-05-15 20:38:17,15.08876322,0.0001358,53.2181,329.4373,82.7154,277.3992,0.00022723,3.334e-05,0.0,0 STARLINK-4596,1 53624U 22104AN  24136.85992676  .00003334  00000-0  22723-3 0  9999,2 53624  53.2181 329.4373 0001358  82.7154 277.3992 15.08876322 95002,6917.769,95.435,540.574,538.695,0.0
53624.0,STARLINK-4596,PAYLOAD,2024-05-16 12:32:09,15.08842703,9.26e-05,53.2188,326.462,106.3302,253.7792,-6.7854e-05,-1.368e-05,0.0,0 STARLINK-4596,1 53624U 22104AN  24137.52233278 -.00001368  00000-0 -67854-4 0  9992,2 53624  53.2188 326.4620 0000926 106.3302 253.7792 15.08842703 95102,6917.872,95.437,540.378,539.097,0.0
53624.0,STARLINK-4596,PAYLOAD,2024-05-16 18:53:41,15.08857392,0.0001606,53.2155,325.274,92.7739,267.3437,1.4674e-05,-5.4e-07,0.0,0 STARLINK-4596,1 53624U 22104AN  24137.78728187 -.00000054  00000-0  14674-4 0  9990,2 53624  53.2155 325.2740 0001606  92.7739 267.3437 15.08857392 95145,6917.827,95.436,540.803,538.581,0.0
53624.0,STARLINK-4596,PAYLOAD,2024-05-17 12:22:56,15.08846661,3.46e-05,53.2176,322.0028,297.5329,62.5628,-0.00014218,-2.55e-05,0.0,0 STARLINK-4596,1 53624U 22104AN  24138.51592774 -.00002550  00000-0 -14218-3 0  9990,2 53624  53.2176 322.0028 0000346 297.5329  62.5628 15.08846661 95258,6917.86,95.437,539.964,539.486,0.0
53624.0,STARLINK-4596,PAYLOAD,2024-05-18 12:13:43,15.0884763,0.0001642,53.2123,317.5406,97.1792,262.9387,0.00018903,2.722e-05,0.0,0 STARLINK-4596,1 53624U 22104AN  24139.50952564  .00002722  00000-0  18903-3 0  9991,2 53624  53.2123 317.5406 0001642  97.1792 262.9387 15.08847630 96084,6917.857,95.437,540.858,538.586,0.0
53624.0,STARLINK-4596,PAYLOAD,2024-05-18 18:35:15,15.08866611,0.0001548,53.2162,316.3544,78.7582,281.3584,0.00060561,9.37e-05,0.0,0 STARLINK-4596,1 53624U 22104AN  24139.77447960  .00009370  00000-0  60561-3 0  9992,2 53624  53.2162 316.3544 0001548  78.7582 281.3584 15.08866611 95447,6917.799,95.436,540.735,538.593,0.0
53624.0,STARLINK-4596,PAYLOAD,2024-05-18 21:46:01,15.08875034,0.0001595,53.2162,315.7578,77.3308,282.7862,0.00085908,0.00013424,0.0,0 STARLINK-4596,1 53624U 22104AN  24139.90695706  .00013424  00000-0  85908-3 0  9997,2 53624  53.2162 315.7578 0001595  77.3308 282.7862 15.08875034 96141,6917.773,95.435,540.742,538.535,0.0
53624.0,STARLINK-4596,PAYLOAD,2024-05-19 12:04:30,15.08831851,0.0001824,53.2171,313.0838,104.6756,255.4438,-0.00029737,-5.017e-05,0.0,0 STARLINK-4596,1 53624U 22104AN  24140.50312889 -.00005017  00000-0 -29737-3 0  9992,2 53624  53.2171 313.0838 0001824 104.6756 255.4438 15.08831851 96232,6917.905,95.438,541.032,538.508,0.0
53624.0,STARLINK-4596,PAYLOAD,2024-05-19 21:36:49,15.08835209,0.0001413,53.217,311.2998,95.2393,264.876,0.0015212,0.00024002,0.0,0 STARLINK-4596,1 53624U 22104AN  24140.90057262  .00024002  00000-0  15212-2 0  9992,2 53624  53.2170 311.2998 0001413  95.2393 264.8760 15.08835209 95618,6917.895,95.438,540.738,538.783,0.0
53624.0,STARLINK-4596,PAYLOAD,2024-05-20 16:41:26,15.08855239,0.0001386,53.2166,307.7311,94.1802,265.9349,0.0010962,0.00017208,0.0,0 STARLINK-4596,1 53624U 22104AN  24141.69545119  .00017208  00000-0  10962-2 0  9999,2 53624  53.2166 307.7311 0001386  94.1802 265.9349 15.08855239 95737,6917.834,95.437,540.658,538.74,0.0
53624.0,STARLINK-4596,PAYLOAD,2024-05-21 14:56:50,15.08845543,0.0004551,53.2158,303.5642,150.5076,209.6174,0.00075387,0.00011733,0.0,0 STARLINK-4596,1 53624U 22104AN  24142.62280438  .00011733  00000-0  75387-3 0  9993,2 53624  53.2158 303.5642 0004551 150.5076 209.6174 15.08845543 96555,6917.863,95.437,542.877,536.58,0.0
53624.0,STARLINK-4596,PAYLOAD,2024-05-21 18:07:37,15.08847075,0.0001442,53.2168,302.9731,76.6749,283.4404,0.00047465,7.276e-05,0.0,0 STARLINK-4596,1 53624U 22104AN  24142.75529073  .00007276  00000-0  47465-3 0  9991,2 53624  53.2168 302.9731 0001442  76.6749 283.4404 15.08847075 95893,6917.859,95.437,540.721,538.726,0.0
53624.0,STARLINK-4596,PAYLOAD,2024-05-23 14:38:25,15.08846274,0.000147,53.2167,294.6448,80.1238,279.992,0.00052407,8.064e-05,0.0,0 STARLINK-4596,1 53624U 22104AN  24144.61001891  .00008064  00000-0  52407-3 0  9999,2 53624  53.2167 294.6448 0001470  80.1238 279.9920 15.08846274 96858,6917.861,95.437,540.743,538.709,0.0
53624.0,STARLINK-4596,PAYLOAD,2024-05-23 17:49:11,15.08854621,0.0001324,53.2171,294.049,95.9909,264.1234,0.00069195,0.00010746,0.0,0 STARLINK-4596,1 53624U 22104AN  24144.74249664  .00010746  00000-0  69195-3 0  9997,2 53624  53.2171 294.0490 0001324  95.9909 264.1234 15.08854621 96197,6917.836,95.437,540.617,538.785,0.0
53624.0,STARLINK-4596,PAYLOAD,2024-05-24 14:29:12,15.0885257,0.0001548,53.2178,290.1857,77.1829,282.9336,0.00033717,5.084e-05,0.0,0 STARLINK-4596,1 53624U 22104AN  24145.60361344  .00005084  00000-0  33717-3 0  9993,2 53624  53.2178 290.1857 0001548  77.1829 282.9336 15.08852570 97002,6917.842,95.437,540.778,538.636,0.0
53624.0,STARLINK-4596,PAYLOAD,2024-05-24 19:15:20,15.08872357,0.0001336,53.2175,289.2935,121.0608,239.0515,0.00061752,9.562e-05,0.0,0 STARLINK-4596,1 53624U 22104AN  24145.80232463  .00009562  00000-0  61752-3 0  9999,2 53624  53.2175 289.2935 0001336 121.0608 239.0515 15.08872357 97034,6917.781,95.436,540.571,538.722,0.0
